SHIYAN-1 (SY-1)         
1 28220U 04012A   26068.73650539  .00016393  00000+0  54854-3 0  9991
2 28220  97.8764 140.5238 0005873  23.6952 336.4557 15.31043463195862
STARLINK-36183          
1 67173U 25303L   26068.04139274  .00045748  00000+0  16613-2 0  9995
2 67173  43.0008 314.5763 0001771 267.5782  92.4867 15.27587617 12630
